[{"OBJECT_NAME":"STARLINK-34433","OBJECT_ID":"2025-130L","EPOCH":"2026-03-09T18:53:34.534464","MEAN_MOTION":15.30207837,"ECCENTRICITY":0.00014636,"INCLINATION":53.1605,"RA_OF_ASC_NODE":88.3913,"ARG_OF_PERICENTER":74.1491,"MEAN_ANOMALY":285.9671,"EPHEMERIS_TYPE":0,"CLASSIFICATION_TYPE":"U","NORAD_CAT_ID":64448,"ELEMENT_SET_NO":999,"REV_AT_EPOCH":4071,"BSTAR":0.00078131869,"MEAN_MOTION_DOT":0.00022858,"MEAN_MOTION_DDOT":0},{"OBJECT_NAME":"CZ-4C DEB","OBJECT_ID":"2007-055C","EPOCH":"2026-03-09T22:46:15.652128","MEAN_MOTION":15.30523578,"ECCENTRICITY":0.00469709,"INCLINATION":97.8668,"RA_OF_ASC_NODE":247.2248,"ARG_OF_PERICENTER":277.363,"MEAN_ANOMALY":82.2273,"EPHEMERIS_TYPE":0,"CLASSIFICATION_TYPE":"U","NORAD_CAT_ID":35248,"ELEMENT_SET_NO":999,"REV_AT_EPOCH":97353,"BSTAR":0.0018809895,"MEAN_MOTION_DOT":0.000577,"MEAN_MOTION_DDOT":0}]
